{"type": "FeatureCollection", "features": [ {"type": "Feature", "properties": {"norad_id": 43010, "name": "FENGYUN 3D", "group": "weather", "lat": 31.995500901564565, "lon": -53.050140741107654, "alt_km": 825.0943106718587, "timestamp": "2025-12-12T07:43:20.145951+00:00", "meta": {"OBJECT_NAME": "FENGYUN 3D", "OBJECT_ID": "2017-072A", "EPOCH": "2025-12-12T00:48:14.655744", "MEAN_MOTION": 14.19684413, "ECCENTRICITY": 9.278e-05, "INCLINATION": 98.9893, "RA_OF_ASC_NODE": 312.3329, "ARG_OF_PERICENTER": 185.4674, "MEAN_ANOMALY": 174.6491, "EPHEMERIS_TYPE": 0, "CLASSIFICATION_TYPE": "U", "NORAD_CAT_ID": 43010, "ELEMENT_SET_NO": 999, "REV_AT_EPOCH": 41843, "BSTAR": 0.00022787634, "MEAN_MOTION_DOT": 4.36e-06, "MEAN_MOTION_DDOT": 0}, "tle": {"line1": "1 43010U 17072A   25346.03350296  .00000436  00000+0  22788-3 0  9995", "line2": "2 43010  98.9893 312.3329 0000927 185.4674 174.6491 14.19684413418435"}}, "geometry": {"type": "Point", "coordinates": [-53.050140741107654, 31.995500901564565]}}, {"type": "Feature", "properties": {"norad_id": 43013, "name": "NOAA 20 (JPSS-1)", "group": "weather", "lat": -5.203868085427465, "lon": 101.81841119096241, "alt_km": 830.7377409136006, "timestamp": "2025-12-12T07:43:20.145963+00:00", "meta": {"OBJECT_NAME": "NOAA 20 (JPSS-1)", "OBJECT_ID": "2017-073A", "EPOCH": "2025-12-11T22:23:41.079840", "MEAN_MOTION": 14.1952541, "ECCENTRICITY": 0.00021569, "INCLINATION": 98.7598, "RA_OF_ASC_NODE": 282.2387, "ARG_OF_PERICENTER": 88.3214, "MEAN_ANOMALY": 271.8209, "EPHEMERIS_TYPE": 0, "CLASSIFICATION_TYPE": "U", "NORAD_CAT_ID": 43013, "ELEMENT_SET_NO": 999, "REV_AT_EPOCH": 41790, "BSTAR": 0.00010426277, "MEAN_MOTION_DOT": 1.76e-06, "MEAN_MOTION_DDOT": 0}, "tle": {"line1": "1 43013U 17073A   25345.93311435  .00000176  00000+0  10426-3 0  9996", "line2": "2 43013  98.7598 282.2387 0002156  88.3214 271.8209 14.19525410417903"}}, "geometry": {"type": "Point", "coordinates": [101.81841119096241, -5.203868085427465]}}, {"type": "Feature", "properties": {"norad_id": 43226, "name": "GOES 17", "group": "weather", "lat": 0.15984021638045623, "lon": 107.59661511410093, "alt_km": 35799.75677643761, "timestamp": "2025-12-12T07:43:20.145976+00:00", "meta": {"OBJECT_NAME": "GOES 17", "OBJECT_ID": "2018-022A", "EPOCH": "2025-12-11T23:21:28.019808", "MEAN_MOTION": 1.00271668, "ECCENTRICITY": 0.00032892, "INCLINATION": 0.4581, "RA_OF_ASC_NODE": 89.1115, "ARG_OF_PERICENTER": 187.3128, "MEAN_ANOMALY": 65.3748, "EPHEMERIS_TYPE": 0, "CLASSIFICATION_TYPE": "U", "NORAD_CAT_ID": 43226, "ELEMENT_SET_NO": 999, "REV_AT_EPOCH": 2854, "BSTAR": 0, "MEAN_MOTION_DOT": -1.74e-06, "MEAN_MOTION_DDOT": 0}, "tle": {"line1": "1 43226U 18022A   25345.97324097 -.00000174  00000+0  00000+0 0  9991", "line2": "2 43226   0.4581  89.1115 0003289 187.3128  65.3748  1.00271668 28547"}}, "geometry": {"type": "Point", "coordinates": [107.59661511410093, 0.15984021638045623]}}, {"type": "Feature", "properties": {"norad_id": 43491, "name": "FENGYUN 2H", "group": "weather", "lat": -0.6829946410063795, "lon": -83.53823222464251, "alt_km": 35775.69684964469, "timestamp": "2025-12-12T07:43:20.145998+00:00", "meta": {"OBJECT_NAME": "FENGYUN 2H", "OBJECT_ID": "2018-050A", "EPOCH": "2025-12-11T22:26:53.711232", "MEAN_MOTION": 1.00271124, "ECCENTRICITY": 0.00028704, "INCLINATION": 2.5491, "RA_OF_ASC_NODE": 81.3369, "ARG_OF_PERICENTER": 166.5326, "MEAN_ANOMALY": 249.1026, "EPHEMERIS_TYPE": 0, "CLASSIFICATION_TYPE": "U", "NORAD_CAT_ID": 43491, "ELEMENT_SET_NO": 999, "REV_AT_EPOCH": 2756, "BSTAR": 0, "MEAN_MOTION_DOT": -1.21e-06, "MEAN_MOTION_DDOT": 0}, "tle": {"line1": "1 43491U 18050A   25345.93534388 -.00000121  00000+0  00000+0 0  9990", "line2": "2 43491   2.5491  81.3369 0002870 166.5326 249.1026  1.00271124 27562"}}, "geometry": {"type": "Point", "coordinates": [-83.53823222464251, -0.6829946410063795]}}, {"type": "Feature", "properties": {"norad_id": 43689, "name": "METOP-C", "group": "weather", "lat": -36.428420998327724, "lon": 50.58120473418679, "alt_km": 826.4047098245137, "timestamp": "2025-12-12T07:43:20.146010+00:00", "meta": {"OBJECT_NAME": "METOP-C", "OBJECT_ID": "2018-087A", "EPOCH": "2025-12-11T23:26:56.161824", "MEAN_MOTION": 14.21483933, "ECCENTRICITY": 0.00012692, "INCLINATION": 98.6931, "RA_OF_ASC_NODE": 43.7584, "ARG_OF_PERICENTER": 40.4274, "MEAN_ANOMALY": 319.6997, "EPHEMERIS_TYPE": 0, "CLASSIFICATION_TYPE": "U", "NORAD_CAT_ID": 43689, "ELEMENT_SET_NO": 999, "REV_AT_EPOCH": 36823, "BSTAR": 0.00011681465, "MEAN_MOTION_DOT": 2.12e-06, "MEAN_MOTION_DDOT": 0}, "tle": {"line1": "1 43689U 18087A   25345.97703891  .00000212  00000+0  11681-3 0  9991", "line2": "2 43689  98.6931  43.7584 0001269  40.4274 319.6997 14.21483933368232"}}, "geometry": {"type": "Point", "coordinates": [50.58120473418679, -36.428420998327724]}}, {"type": "Feature", "properties": {"norad_id": 43823, "name": "GEO-KOMPSAT-2A", "group": "weather", "lat": -0.011897469286277471, "lon": -34.639117021696514, "alt_km": 35787.178247259064, "timestamp": "2025-12-12T07:43:20.146022+00:00", "meta": {"OBJECT_NAME": "GEO-KOMPSAT-2A", "OBJECT_ID": "2018-100A", "EPOCH": "2025-12-11T22:40:52.372704", "MEAN_MOTION": 1.00274281, "ECCENTRICITY": 4.194e-05, "INCLINATION": 0.0431, "RA_OF_ASC_NODE": 144.5887, "ARG_OF_PERICENTER": 351.1168, "MEAN_ANOMALY": 53.6713, "EPHEMERIS_TYPE": 0, "CLASSIFICATION_TYPE": "U", "NORAD_CAT_ID": 43823, "ELEMENT_SET_NO": 999, "REV_AT_EPOCH": 2575, "BSTAR": 0, "MEAN_MOTION_DOT": -3.35e-06, "MEAN_MOTION_DDOT": 0}, "tle": {"line1": "1 43823U 18100A   25345.94505061 -.00000335  00000+0  00000+0 0  9999", "line2": "2 43823   0.0431 144.5887 0000419 351.1168  53.6713  1.00274281 25755"}}, "geometry": {"type": "Point", "coordinates": [-34.639117021696514, -0.011897469286277471]}}, {"type": "Feature", "properties": {"norad_id": 44387, "name": "METEOR-M2 2", "group": "weather", "lat": 32.48520544390021, "lon": -39.67913199301733, "alt_km": 809.2605761488039, "timestamp": "2025-12-12T07:43:20.146034+00:00", "meta": {"OBJECT_NAME": "METEOR-M2 2", "OBJECT_ID": "2019-038A", "EPOCH": "2025-12-12T00:49:26.880960", "MEAN_MOTION": 14.24290757, "ECCENTRICITY": 0.00012134, "INCLINATION": 98.8975, "RA_OF_ASC_NODE": 325.7542, "ARG_OF_PERICENTER": 148.8489, "MEAN_ANOMALY": 211.2761, "EPHEMERIS_TYPE": 0, "CLASSIFICATION_TYPE": "U", "NORAD_CAT_ID": 44387, "ELEMENT_SET_NO": 999, "REV_AT_EPOCH": 33465, "BSTAR": 0.00010464126, "MEAN_MOTION_DOT": 1.96e-06, "MEAN_MOTION_DDOT": 0}, "tle": {"line1": "1 44387U 19038A   25346.03433890  .00000196  00000+0  10464-3 0  9990", "line2": "2 44387  98.8975 325.7542 0001213 148.8489 211.2761 14.24290757334653"}}, "geometry": {"type": "Point", "coordinates": [-39.67913199301733, 32.48520544390021]}}, {"type": "Feature", "properties": {"norad_id": 47719, "name": "ARKTIKA-M 1", "group": "weather", "lat": 63.124282538502044, "lon": 178.2789338010916, "alt_km": 39138.17603185263, "timestamp": "2025-12-12T07:43:20.146050+00:00", "meta": {"OBJECT_NAME": "ARKTIKA-M 1", "OBJECT_ID": "2021-016A", "EPOCH": "2025-12-09T14:03:23.859648", "MEAN_MOTION": 2.00631311, "ECCENTRICITY": 0.7202538, "INCLINATION": 63.1769, "RA_OF_ASC_NODE": 84.4506, "ARG_OF_PERICENTER": 269.1116, "MEAN_ANOMALY": 15.6235, "EPHEMERIS_TYPE": 0, "CLASSIFICATION_TYPE": "U", "NORAD_CAT_ID": 47719, "ELEMENT_SET_NO": 999, "REV_AT_EPOCH": 3498, "BSTAR": 0, "MEAN_MOTION_DOT": -6.1e-07, "MEAN_MOTION_DDOT": 0}, "tle": {"line1": "1 47719U 21016A   25343.58569282 -.00000061  00000+0  00000+0 0  9996", "line2": "2 47719  63.1769  84.4506 7202538 269.1116  15.6235  2.00631311 34985"}}, "geometry": {"type": "Point", "coordinates": [178.2789338010916, 63.124282538502044]}}, {"type": "Feature", "properties": {"norad_id": 49008, "name": "FENGYUN 3E", "group": "weather", "lat": -1.1337864191940157, "lon": -12.977962257561137, "alt_km": 828.7920367584156, "timestamp": "2025-12-12T07:43:20.146063+00:00", "meta": {"OBJECT_NAME": "FENGYUN 3E", "OBJECT_ID": "2021-062A", "EPOCH": "2025-12-11T23:16:17.314176", "MEAN_MOTION": 14.19880341, "ECCENTRICITY": 5.714e-05, "INCLINATION": 98.748, "RA_OF_ASC_NODE": 346.4995, "ARG_OF_PERICENTER": 273.4442, "MEAN_ANOMALY": 86.6669, "EPHEMERIS_TYPE": 0, "CLASSIFICATION_TYPE": "U", "NORAD_CAT_ID": 49008, "ELEMENT_SET_NO": 999, "REV_AT_EPOCH": 23001, "BSTAR": 9.9020761e-05, "MEAN_MOTION_DOT": 1.66e-06, "MEAN_MOTION_DDOT": 0}, "tle": {"line1": "1 49008U 21062A   25345.96964484  .00000166  00000+0  99021-4 0  9998", "line2": "2 49008  98.7480 346.4995 0000571 273.4442  86.6669 14.19880341230014"}}, "geometry": {"type": "Point", "coordinates": [-12.977962257561137, -1.1337864191940157]}}, {"type": "Feature", "properties": {"norad_id": 51850, "name": "GOES 18", "group": "weather", "lat": 0.0022737574209495143, "lon": 60.106318163973164, "alt_km": 35786.83252401678, "timestamp": "2025-12-12T07:43:20.146075+00:00", "meta": {"OBJECT_NAME": "GOES 18", "OBJECT_ID": "2022-021A", "EPOCH": "2025-12-11T23:07:59.310624", "MEAN_MOTION": 1.00272382, "ECCENTRICITY": 6.879e-05, "INCLINATION": 0.0207, "RA_OF_ASC_NODE": 157.1852, "ARG_OF_PERICENTER": 153.9082, "MEAN_ANOMALY": 339.8205, "EPHEMERIS_TYPE": 0, "CLASSIFICATION_TYPE": "U", "NORAD_CAT_ID": 51850, "ELEMENT_SET_NO": 999, "REV_AT_EPOCH": 471, "BSTAR": 0, "MEAN_MOTION_DOT": 1.05e-06, "MEAN_MOTION_DDOT": 0}, "tle": {"line1": "1 51850U 22021A   25345.96388091  .00000105  00000+0  00000+0 0  9993", "line2": "2 51850   0.0207 157.1852 0000687 153.9082 339.8205  1.00272382  4715"}}, "geometry": {"type": "Point", "coordinates": [60.106318163973164, 0.0022737574209495143]}}]}